[{"OBJECT_NAME":"LEMUR-2-FURIAUS","OBJECT_ID":"2017-042R","EPOCH":"2026-03-09T23:04:27.745536","MEAN_MOTION":15.26272951,"ECCENTRICITY":0.00075374,"INCLINATION":97.3753,"RA_OF_ASC_NODE":248.499,"ARG_OF_PERICENTER":55.8686,"MEAN_ANOMALY":304.3266,"EPHEMERIS_TYPE":0,"CLASSIFICATION_TYPE":"U","NORAD_CAT_ID":42840,"ELEMENT_SET_NO":999,"REV_AT_EPOCH":47305,"BSTAR":0.00099966194,"MEAN_MOTION_DOT":0.00025928,"MEAN_MOTION_DDOT":0},{"OBJECT_NAME":"STARLINK-30613","OBJECT_ID":"2023-160C","EPOCH":"2026-03-09T01:52:28.305696","MEAN_MOTION":15.26737117,"ECCENTRICITY":9.719e-5,"INCLINATION":42.9982,"RA_OF_ASC_NODE":81.2216,"ARG_OF_PERICENTER":276.131,"MEAN_ANOMALY":83.9431,"EPHEMERIS_TYPE":0,"CLASSIFICATION_TYPE":"U","NORAD_CAT_ID":58077,"ELEMENT_SET_NO":999,"REV_AT_EPOCH":13286,"BSTAR":-7.0440871e-5,"MEAN_MOTION_DOT":-2.148e-5,"MEAN_MOTION_DDOT":0}]
